DALIAN-1 LIANLI         
1 58816U 23063C   24047.58214281  .00258963  00000+0  17959-2 0  9995
2 58816  41.4664 104.8440 0012467  31.4436 328.7150 15.72771764  4543
SORAYA                  
1 58817U 24015A   24048.19658795  .00000352  00000+0  13989-3 0  9991
2 58817  64.5145  31.6820 0010928 260.1301  99.8550 14.41919681  4036
QAEM 100 R/B            
1 58818U 24015B   24047.33811814  .00000646  00000+0  22279-3 0  9998
2 58818  64.5035  33.9635 0012683 291.9787  67.9950 14.43319917  3918
QAEM 100 DEB            
1 58819U 24015C   24028.55774234  .00054227  00000+0  15623-1 0  9993
2 58819  64.4782  88.5570 0010930 314.2129  45.8058 14.44281846  1162
2024-016A               
1 58820U 24016A   24048.17201417  .00017414  00000+0  10189-2 0  9994
2 58820  97.5204 124.1127 0014440 194.6787 165.4026 15.11822135  3786
2024-016B               
1 58821U 24016B   24048.31854468  .00014642  00000+0  86226-3 0  9997
2 58821  97.5202 124.2529 0014451 193.3636 236.0097 15.11627594  3799
2024-016C               
1 58822U 24016C   24048.32188135  .00011400  00000+0  67318-3 0  9990
2 58822  97.5184 124.2534 0014592 193.4993 254.6313 15.11588379  3792
2024-016D               
1 58823U 24016D   24048.17046666  .00010242  00000+0  60285-3 0  9995
2 58823  97.5169 124.1031 0014473 198.1597 161.9119 15.11735291  3776
2024-016E               
1 58824U 24016E   24047.89162157  .00081941  40368-5  59278-3 0  9999
2 58824  97.6639 125.9371 0179016 294.5751  63.6938 15.54989667  3822
2024-016F               
1 58825U 24016F   24048.17221527  .00016354  00000+0  95855-3 0  9999
2 58825  97.5205 124.1117 0014052 195.1042 164.9771 15.11777118  3703
STARLINK-31233          
1 58826U 24017A   24046.08642411  .00004184  00000+0  10000-3 0  9995
2 58826  53.1588 112.5706 0002858 124.7916 326.3386 15.43819589  4622
STARLINK-31271          
1 58827U 24017B   24045.03341269  .00069103  00000+0  17458-2 0  9992
2 58827  53.1587 117.5330 0001038  35.5770 324.5304 15.39200032  4404
STARLINK-31222          
1 58828U 24017C   24048.25001157  .00042869  00000+0  15514-2 0  9990
2 58828  53.1604 102.5662 0000398 104.8332 354.8977 15.28020258  4915
STARLINK-31258          
1 58829U 24017D   24047.91667824 -.00005333  00000+0 -18008-3 0  9991
2 58829  53.1605 104.0624 0001400  67.6358  21.3630 15.28009711  4925
STARLINK-31253          
1 58830U 24017E   24048.09645848 -.00543664  00000+0 -20663-1 0  9997
2 58830  53.1605 103.2268 0001938 112.6196 247.5010 15.28685682  4896
STARLINK-31232          
1 58831U 24017F   24048.25001157 -.00326954  00000+0 -12243-1 0  9991
2 58831  53.1608 102.4688 0000942  83.6238  65.6694 15.28222621  4915
STARLINK-31263          
1 58832U 24017G   24048.09193671 -.00622695  00000+0 -22306-1 0  9999
2 58832  53.1609 103.1994 0001333 149.2357 210.8722 15.30536575  5007
STARLINK-31175          
1 58833U 24017H   24045.00502416  .00132374  00000+0  28247-2 0  9998
2 58833  53.1593 117.3471 0002383  35.5810 324.5355 15.43942989  4406
STARLINK-31171          
1 58834U 24017J   24045.02438311  .00061369  00000+0  13259-2 0  9995
2 58834  53.1587 117.4748 0001014 138.4163 221.6921 15.43958458  4406
STARLINK-31246          
1 58835U 24017K   24047.91667824 -.02197198  00000+0 -73026-1 0  9990
2 58835  53.1605 103.9374 0001393  78.4453  73.3173 15.34190948  4928
STARLINK-31251          
1 58836U 24017L   24043.80431375 -.00276309  00000+0 -61601-2 0  9992
2 58836  53.1598 123.3664 0001794  60.6515 299.4671 15.44068969  4321
STARLINK-31172          
1 58837U 24017M   24047.13090091  .00082209  00000+0  11411-2 0  9995
2 58837  53.1596 106.4332 0001263 306.2445  53.8450 15.56347592  4744
STARLINK-31249          
1 58838U 24017N   24047.91667824 -.02201648  00000+0 -68458-1 0  9992
2 58838  53.1605 103.9052 0001108  84.8876  83.0931 15.36267243  4866
STARLINK-31250          
1 58839U 24017P   24047.91667824 -.02201791  00000+0 -64330-1 0  9997
2 58839  53.1601 103.8842 0001485  84.3096  94.1963 15.38170952  4811
STARLINK-31248          
1 58840U 24017Q   24047.55873380 -.00513712  00000+0 -12415-1 0  9999
2 58840  53.1592 105.5582 0001766  49.0146 311.1013 15.42606913  4913
STARLINK-31236          
1 58841U 24017R   24046.19906488 -.00003501  00000+0 -66883-4 0  9996
2 58841  53.1574 112.0022 0001575  74.6552 285.4628 15.43866536  4587
STARLINK-31228          
1 58842U 24017S   24048.14237754 -.00241058  00000+0 -61527-2 0  9996
2 58842  53.1598 102.8014 0007508 121.4567 238.7173 15.39852217  4909
STARLINK-31280          
1 58843U 24017T   24048.07613578 -.00143396  00000+0 -32112-2 0  9995
2 58843  53.1590 103.0977 0001478  76.7192 283.3979 15.43393951  4897
STARLINK-31269          
1 58844U 24017U   24048.14029436 -.00091394  00000+0 -20085-2 0  9994
2 58844  53.1595 102.7874 0004149 119.3241 240.8180 15.43691249  4895
STARLINK-31264          
1 58845U 24017V   24047.94619752 -.00008437  00000+0 -17429-3 0  9993
2 58845  53.1593 103.7096 0001708  97.2644 262.8557 15.43841508  4864
