OBJECT_NAME,OBJECT_ID,EPOCH,MEAN_MOTION,ECCENTRICITY,INCLINATION,RA_OF_ASC_NODE,ARG_OF_PERICENTER,MEAN_ANOMALY,EPHEMERIS_TYPE,CLASSIFICATION_TYPE,NORAD_CAT_ID,ELEMENT_SET_NO,REV_AT_EPOCH,BSTAR,MEAN_MOTION_DOT,MEAN_MOTION_DDOT
DALIAN-1 LIANLI,2023-063C,2024-02-16T13:58:17.138784,15.72771764,0.0012467,41.4664,104.844,31.4436,328.715,0,U,58816,999,454,0.0017959,0.00258963,0
SORAYA,2024-015A,2024-02-17T04:43:05.198880,14.41919681,0.0010928,64.5145,31.682,260.1301,99.855,0,U,58817,999,403,0.00013989,3.52e-06,0
QAEM 100 R/B,2024-015B,2024-02-16T08:06:53.407296,14.43319917,0.0012683,64.5035,33.9635,291.9787,67.995,0,U,58818,999,391,0.00022279,6.46e-06,0
QAEM 100 DEB,2024-015C,2024-01-28T13:23:08.938176,14.44281846,0.001093,64.4782,88.557,314.2129,45.8058,0,U,58819,999,116,0.015623,0.00054227,0
2024-016A,2024-016A,2024-02-17T04:07:42.024288,15.11822135,0.001444,97.5204,124.1127,194.6787,165.4026,0,U,58820,999,378,0.0010189,0.00017414,0
2024-016B,2024-016B,2024-02-17T07:38:42.260352,15.11627594,0.0014451,97.5202,124.2529,193.3636,236.0097,0,U,58821,999,379,0.00086226,0.00014642,0
2024-016C,2024-016C,2024-02-17T07:43:30.548640,15.11588379,0.0014592,97.5184,124.2534,193.4993,254.6313,0,U,58822,999,379,0.00067318,0.000114,0
2024-016D,2024-016D,2024-02-17T04:05:28.319424,15.11735291,0.0014473,97.5169,124.1031,198.1597,161.9119,0,U,58823,999,377,0.00060285,0.00010242,0
2024-016E,2024-016E,2024-02-16T21:23:56.103648,15.54989667,0.0179016,97.6639,125.9371,294.5751,63.6938,0,U,58824,999,382,0.00059278,0.00081941,4.0368e-06
2024-016F,2024-016F,2024-02-17T04:07:59.399328,15.11777118,0.0014052,97.5205,124.1117,195.1042,164.9771,0,U,58825,999,370,0.00095855,0.00016354,0
STARLINK-31233,2024-017A,2024-02-15T02:04:27.043104,15.43819589,0.0002858,53.1588,112.5706,124.7916,326.3386,0,U,58826,999,462,0.0001,4.184e-05,0
STARLINK-31271,2024-017B,2024-02-14T00:48:06.856416,15.39200032,0.0001038,53.1587,117.533,35.577,324.5304,0,U,58827,999,440,0.0017458,0.00069103,0
STARLINK-31222,2024-017C,2024-02-17T06:00:00.999648,15.28020258,3.98e-05,53.1604,102.5662,104.8332,354.8977,0,U,58828,999,491,0.0015514,0.00042869,0
STARLINK-31258,2024-017D,2024-02-16T22:00:00.999936,15.28009711,0.00014,53.1605,104.0624,67.6358,21.363,0,U,58829,999,492,-0.00018008,-5.333e-05,0
STARLINK-31253,2024-017E,2024-02-17T02:18:54.012672,15.28685682,0.0001938,53.1605,103.2268,112.6196,247.501,0,U,58830,999,489,-0.020663,-0.00543664,0
STARLINK-31232,2024-017F,2024-02-17T06:00:00.999648,15.28222621,9.42e-05,53.1608,102.4688,83.6238,65.6694,0,U,58831,999,491,-0.012243,-0.00326954,0
STARLINK-31263,2024-017G,2024-02-17T02:12:23.331744,15.30536575,0.0001333,53.1609,103.1994,149.2357,210.8722,0,U,58832,999,500,-0.022306,-0.00622695,0
STARLINK-31175,2024-017H,2024-02-14T00:07:14.087424,15.43942989,0.0002383,53.1593,117.3471,35.581,324.5355,0,U,58833,999,440,0.0028247,0.00132374,0
STARLINK-31171,2024-017J,2024-02-14T00:35:06.700704,15.43958458,0.0001014,53.1587,117.4748,138.4163,221.6921,0,U,58834,999,440,0.0013259,0.00061369,0
STARLINK-31246,2024-017K,2024-02-16T22:00:00.999936,15.34190948,0.0001393,53.1605,103.9374,78.4453,73.3173,0,U,58835,999,492,-0.073026,-0.02197198,0
STARLINK-31251,2024-017L,2024-02-12T19:18:12.708000,15.44068969,0.0001794,53.1598,123.3664,60.6515,299.4671,0,U,58836,999,432,-0.0061601,-0.00276309,0
STARLINK-31172,2024-017M,2024-02-16T03:08:29.838624,15.56347592,0.0001263,53.1596,106.4332,306.2445,53.845,0,U,58837,999,474,0.0011411,0.00082209,0
STARLINK-31249,2024-017N,2024-02-16T22:00:00.999936,15.36267243,0.0001108,53.1605,103.9052,84.8876,83.0931,0,U,58838,999,486,-0.068458,-0.02201648,0
STARLINK-31250,2024-017P,2024-02-16T22:00:00.999936,15.38170952,0.0001485,53.1601,103.8842,84.3096,94.1963,0,U,58839,999,481,-0.06433,-0.02201791,0
STARLINK-31248,2024-017Q,2024-02-16T13:24:34.600320,15.42606913,0.0001766,53.1592,105.5582,49.0146,311.1013,0,U,58840,999,491,-0.012415,-0.00513712,0
STARLINK-31236,2024-017R,2024-02-15T04:46:39.205632,15.43866536,0.0001575,53.1574,112.0022,74.6552,285.4628,0,U,58841,999,458,-6.6883e-05,-3.501e-05,0
STARLINK-31228,2024-017S,2024-02-17T03:25:01.419456,15.39852217,0.0007508,53.1598,102.8014,121.4567,238.7173,0,U,58842,999,490,-0.0061527,-0.00241058,0
STARLINK-31280,2024-017T,2024-02-17T01:49:38.131392,15.43393951,0.0001478,53.159,103.0977,76.7192,283.3979,0,U,58843,999,489,-0.0032112,-0.00143396,0
STARLINK-31269,2024-017U,2024-02-17T03:22:01.432704,15.43691249,0.0004149,53.1595,102.7874,119.3241,240.818,0,U,58844,999,489,-0.0020085,-0.00091394,0
STARLINK-31264,2024-017V,2024-02-16T22:42:31.465728,15.43841508,0.0001708,53.1593,103.7096,97.2644,262.8557,0,U,58845,999,486,-0.00017429,-8.437e-05,0
